ORBCOMM-X               
1 21576U 91050C   25150.90659901  .00000343  00000+0  11479-3 0  9992
2 21576  98.3441 217.8564 0002653 222.7377 137.3608 14.43249587779627
ORBCOMM FM01            
1 23545U 95017A   25150.94653085  .00006047  00000+0  63619-3 0  9998
2 23545  69.9626 117.1197 0004885 303.0516  57.0168 14.89878419609943
ORBCOMM FM02            
1 23546U 95017B   25150.96601061  .00007067  00000+0  72709-3 0  9991
2 23546  69.9634 136.5158 0006172 311.3420  48.7203 14.90689144609597
ORBCOMM FM08            
1 25112U 97084A   25150.56037350  .00001526  00000+0  46695-3 0  9997
2 25112  45.0138  92.4760 0004508 163.4231 196.6769 14.45757839438821
ORBCOMM FM10            
1 25113U 97084B   25150.88446110  .00001461  00000+0  45069-3 0  9993
2 25113  45.0151  93.2708 0003073 113.2797 246.8378 14.45546553614014
ORBCOMM FM11            
1 25114U 97084C   25150.54040180  .00001466  00000+0  45427-3 0  9997
2 25114  45.0136  95.5226 0003803 116.3596 243.7646 14.45298534438921
ORBCOMM FM12            
1 25115U 97084D   25150.29578718  .00001441  00000+0  44716-3 0  9996
2 25115  45.0141  96.4480 0002840 106.9603 253.1559 14.45319154438687
ORBCOMM FM09            
1 25116U 97084E   25150.81045670  .00001403  00000+0  43748-3 0  9993
2 25116  45.0146  94.8946 0004412 100.2222 259.9127 14.45197157438966
